1 43013U 17073A   25327.81823509  .00000097  00000+0  66717-4 0  9990
2 43013  98.7570 264.3246 0001887 113.8965 246.2409 14.19518162415334
